GSAT0101 (PRN E11)      
1 37846U 11060A   23077.18729004 -.00000091  00000+0  00000+0 0  9995
2 37846  57.0781  13.9055 0004094   2.2446 357.7451  1.70475816 70880
GSAT0102 (PRN E12)      
1 37847U 11060B   23078.56242076 -.00000097  00000+0  00000+0 0  9994
2 37847  57.0791  13.8680 0005103 339.6603 190.9302  1.70475176 70914
GSAT0103 (PRN E19)      
1 38857U 12055A   23077.22633010  .00000020  00000+0  00000+0 0  9990
2 38857  55.2230 134.1688 0003667 258.6080 101.4286  1.70473478 64915
GSAT0104 (PRN E20)      
1 38858U 12055B   23078.95579870  .00000026  00000+0  00000+0 0  9991
2 38858  55.2228 134.1227 0002245 249.3960 110.6662  1.70473827 64803
GSAT0201 (PRN E18)      
1 40128U 14050A   23078.63719045 -.00000060  00000+0  00000+0 0  9995
2 40128  50.0791 321.3073 1612206 133.9557 240.5271  1.85519106 56322
GSAT0202 (PRN E14)      
1 40129U 14050B   23077.28020405 -.00000051  00000+0  00000+0 0  9991
2 40129  50.1013 320.4294 1609510 134.7202 239.5711  1.85519686 58463
GSAT0203 (PRN E26)      
1 40544U 15017A   23078.72648531 -.00000098  00000+0  00000+0 0  9993
2 40544  56.8737  13.8594 0003667 290.7612  69.1859  1.70475281 48997
GSAT0204 (PRN E22)      
1 40545U 15017B   23077.80664360 -.00000094  00000+0  00000+0 0  9996
2 40545  56.8796  13.8982 0002918 279.6303  80.3238  1.70475271 12025
GSAT0205 (PRN E24)      
1 40889U 15045A   23077.57477713  .00000031  00000+0  00000+0 0  9996
2 40889  55.4569 254.3856 0006003  36.1842 323.8354  1.70473484 46782
GSAT0206 (PRN E30)      
1 40890U 15045B   23078.96863246  .00000017  00000+0  00000+0 0  9996
2 40890  55.4557 254.3428 0003988  35.6022 324.3919  1.70473481 46835
GSAT0209 (PRN E09)      
1 41174U 15079A   23078.55434879  .00000025  00000+0  00000+0 0  9999
2 41174  55.2389 133.8378 0004586 298.5682  61.4705  1.70474774 44560
GSAT0208 (PRN E08)      
1 41175U 15079B   23079.36047582  .00000028  00000+0  00000+0 0  9994
2 41175  55.2384 133.8138 0003954 296.7316  63.3161  1.70474709 44994
GSAT0211 (PRN E02)      
1 41549U 16030A   23078.89431313  .00000018  00000+0  00000+0 0  9992
2 41549  55.6028 254.3070 0003820   9.0530 350.9220  1.70473525 42463
GSAT0210 (PRN E01)      
1 41550U 16030B   23079.18581226  .00000015  00000+0  00000+0 0  9993
2 41550  55.6013 254.3004 0001705 345.9452  14.0158  1.70473527 42461
GSAT0207 (PRN E07)      
1 41859U 16069A   23078.84832126  .00000026  00000+0  00000+0 0  9999
2 41859  54.9007 133.9429 0005764 284.5244  75.4975  1.70474707 39417
GSAT0212 (PRN E03)      
1 41860U 16069B   23079.28931610  .00000027  00000+0  00000+0 0  9999
2 41860  54.8980 133.9278 0003737 301.0020  59.0489  1.70473384 39457
GSAT0213 (PRN E04)      
1 41861U 16069C   23078.48134008  .00000024  00000+0  00000+0 0  9994
2 41861  54.8997 133.9559 0005214 268.8690  91.1554  1.70473476 39309
GSAT0214 (PRN E05)      
1 41862U 16069D   23079.21507063  .00000026  00000+0  00000+0 0  9994
2 41862  54.8991 133.9296 0004169 270.8464  89.1931  1.70473584 39443
GSAT0215 (PRN E21)      
1 43055U 17079A   23076.77204458  .00000040  00000+0  00000+0 0  9998
2 43055  55.5797 254.1941 0001283   0.0372 359.9468  1.70474234 32741
GSAT0216 (PRN E25)      
1 43056U 17079B   23074.71775721  .00000055  00000+0  00000+0 0  9993
2 43056  55.5813 254.2505 0002368 318.0822  41.8899  1.70474334 32729
GSAT0217 (PRN E27)      
1 43057U 17079C   23078.45753793  .00000022  00000+0  00000+0 0  9998
2 43057  55.5769 254.1467 0002697 342.9252  17.0371  1.70474309 32771
GSAT0218 (PRN E31)      
1 43058U 17079D   23076.91782811  .00000038  00000+0  00000+0 0  9998
2 43058  55.5782 254.1866 0002536 304.9596  54.9997  1.70474278 32770
GSAT0221 (PRN E15)      
1 43564U 18060A   23076.23000194 -.00000086  00000+0  00000+0 0  9997
2 43564  57.2542  13.8124 0004710 302.5508  57.3940  1.70475288 28924
GSAT0222 (PRN E33)      
1 43565U 18060B   23078.20964752 -.00000095  00000+0  00000+0 0  9996
2 43565  57.2563  13.7598 0004565 311.8138  48.1338  1.70475239 28994
GSAT0219 (PRN E36)      
1 43566U 18060C   23079.01675431 -.00000099  00000+0  00000+0 0  9994
2 43566  57.2575  13.7402 0004277 313.1774  46.7732  1.70475268 28986
GSAT0220 (PRN E13)      
1 43567U 18060D   23077.47732724 -.00000092  00000+0  00000+0 0  9995
2 43567  57.2567  13.7820 0004177 309.9288  50.0220  1.70475004 28948
GSAT0223 (PRN E34)      
1 49809U 21116A   23077.62528538 -.00000093  00000+0  00000+0 0  9990
2 49809  57.2487  13.6749 0001009 283.7707 257.1768  1.70475152  7958
GSAT0224 (PRN E10)      
1 49810U 21116B   23074.51438072 -.00000079  00000+0  00000+0 0  9994
2 49810  57.2490  13.7575 0000947 315.3872 228.8128  1.70475246  7923
